[{"OBJECT_NAME":"STARLINK-2469","OBJECT_ID":"2021-027AN","EPOCH":"2026-03-09T09:17:04.188192","MEAN_MOTION":15.1882832,"ECCENTRICITY":0.0001315,"INCLINATION":53.1065,"RA_OF_ASC_NODE":102.3811,"ARG_OF_PERICENTER":92.2024,"MEAN_ANOMALY":267.9122,"EPHEMERIS_TYPE":0,"CLASSIFICATION_TYPE":"U","NORAD_CAT_ID":48128,"ELEMENT_SET_NO":999,"REV_AT_EPOCH":27335,"BSTAR":0.0010578489,"MEAN_MOTION_DOT":0.00022048,"MEAN_MOTION_DDOT":0},{"OBJECT_NAME":"FOSSASAT-2E21","OBJECT_ID":"2025-135J","EPOCH":"2026-03-09T20:26:11.535360","MEAN_MOTION":15.19342194,"ECCENTRICITY":0.00047332,"INCLINATION":97.4527,"RA_OF_ASC_NODE":184.3473,"ARG_OF_PERICENTER":156.4187,"MEAN_ANOMALY":203.7265,"EPHEMERIS_TYPE":0,"CLASSIFICATION_TYPE":"U","NORAD_CAT_ID":64536,"ELEMENT_SET_NO":999,"REV_AT_EPOCH":3973,"BSTAR":0.00023900461,"MEAN_MOTION_DOT":4.984e-5,"MEAN_MOTION_DDOT":0}]
