STARLINK-2469           
1 48128U 21027AN  26068.38685403  .00022048  00000+0  10578-2 0  9992
2 48128  53.1065 102.3811 0001315  92.2024 267.9122 15.18828320273357
FOSSASAT-2E21           
1 64536U 25135J   26068.85152240  .00004984  00000+0  23900-3 0  9990
2 64536  97.4527 184.3473 0004733 156.4187 203.7265 15.19342194 39735
